*******************************************************************************
Ephemeris / WWW_USER Mon Mar 10 08:30:27 2025 Pasadena, USA      / Horizons    
*******************************************************************************
Target body name: 341764 (2007 VZ326)             {source: JPL#18}
Center body name: Earth (399)                     {source: DE441}
Center-site name: Mauna Kea
*******************************************************************************
Start time      : A.D. 2019-Jan-08 04:08:00.0000 UT      
Stop  time      : A.D. 2019-Jan-08 16:48:00.0000 UT      
Step-size       : 1 minutes
*******************************************************************************
Target pole/equ : undefined
Target radii    : undefined                                                    
Center geodetic : 204.5278, 19.8260847, 4.21024   {E-lon(deg),Lat(deg),Alt(km)}
Center cylindric: 204.5278, 6006.35451, 2151.0229 {E-lon(deg),Dxy(km),Dz(km)}
Center pole/equ : ITRF93                          {East-longitude positive}
Center radii    : 6378.137, 6378.137, 6356.752 km {Equator_a, b, pole_c}       
Target primary  : Sun
Vis. interferer : MOON (R_eq= 1737.400) km        {source: DE441}
Rel. light bend : Sun                             {source: DE441}
Rel. lght bnd GM: 1.3271E+11 km^3/s^2                                          
Small-body perts: Yes                             {source: SB441-N16}
Atmos refraction: NO (AIRLESS)
RA format       : HMS
Time format     : CAL 
Calendar mode   : Mixed Julian/Gregorian
RTS-only print  : NO       
EOP file        : eop.250307.p250603                                           
EOP coverage    : DATA-BASED 1962-JAN-20 TO 2025-MAR-07. PREDICTS-> 2025-JUN-02
Units conversion: 1 au= 149597870.700 km, c= 299792.458 km/s, 1 day= 86400.0 s 
Table cut-offs 1: Elevation (-90.0deg=NO ),Airmass (>38.000=NO), Daylight (YES)
Table cut-offs 2: Solar elongation (  0.0,180.0=NO ),Local Hour Angle( 0.0=NO )
Table cut-offs 3: RA/DEC angular rate (     0.0=NO )                           
*******************************************************************************
Initial IAU76/J2000 heliocentric ecliptic osculating elements (au, days, deg.):
  EPOCH=  2458738.5 ! 2019-Sep-12.00 (TDB)         Residual RMS= .13886        
   EC= .1008373990761695   QR= 2.768240023430626   TP= 2458584.3440952813      
   OM= 228.7009686323446   W=  245.4004729743531   IN= 4.232471987434818       
  Equivalent ICRF heliocentric cartesian coordinates (au, au/d):
   X=-2.388613100272569E+00  Y= 1.431394755664809E+00  Z= 3.975078424350988E-01
  VX=-6.081658482309184E-03 VY=-8.102092841560219E-03 VZ=-3.413222734767960E-03
Asteroid physical parameters (km, seconds, rotational period in hours):        
   GM= n.a.                RAD= n.a.               ROTPER= n.a.                
   H= 16.54                G= .150                 B-V= n.a.                   
                           ALBEDO= n.a.            STYP= n.a.                  
*******************************************************************************
 Date__(UT)__HR:MN     R.A._________(ICRF)_________DEC
******************************************************
$$SOE
 2019-Jan-08 12:20     05 42 19.410305 +18 53 24.42171
 2019-Jan-08 12:21     05 42 19.378817 +18 53 24.38949
 2019-Jan-08 12:22     05 42 19.347334 +18 53 24.35727
 2019-Jan-08 12:23     05 42 19.315856 +18 53 24.32502
 2019-Jan-08 12:24     05 42 19.284384 +18 53 24.29276
 2019-Jan-08 12:25     05 42 19.252916 +18 53 24.26049
 2019-Jan-08 12:26     05 42 19.221455 +18 53 24.22820
 2019-Jan-08 12:27     05 42 19.189998 +18 53 24.19589
 2019-Jan-08 12:28     05 42 19.158547 +18 53 24.16357
 2019-Jan-08 12:29     05 42 19.127102 +18 53 24.13123
 2019-Jan-08 12:30     05 42 19.095661 +18 53 24.09888
 2019-Jan-08 12:31     05 42 19.064226 +18 53 24.06651
 2019-Jan-08 12:32     05 42 19.032797 +18 53 24.03413
 2019-Jan-08 12:33     05 42 19.001373 +18 53 24.00173
 2019-Jan-08 12:34     05 42 18.969954 +18 53 23.96932
 2019-Jan-08 12:35     05 42 18.938541 +18 53 23.93689
 2019-Jan-08 12:36     05 42 18.907134 +18 53 23.90445
 2019-Jan-08 12:37     05 42 18.875732 +18 53 23.87199
 2019-Jan-08 12:38     05 42 18.844335 +18 53 23.83952
 2019-Jan-08 12:39     05 42 18.812944 +18 53 23.80704
 2019-Jan-08 12:40     05 42 18.781559 +18 53 23.77454
 2019-Jan-08 12:41     05 42 18.750179 +18 53 23.74203
 2019-Jan-08 12:42     05 42 18.718805 +18 53 23.70950
 2019-Jan-08 12:43     05 42 18.687436 +18 53 23.67696
 2019-Jan-08 12:44     05 42 18.656073 +18 53 23.64441
 2019-Jan-08 12:45     05 42 18.624716 +18 53 23.61184
 2019-Jan-08 12:46     05 42 18.593364 +18 53 23.57926
 2019-Jan-08 12:47     05 42 18.562018 +18 53 23.54666
 2019-Jan-08 12:48     05 42 18.530677 +18 53 23.51405
 2019-Jan-08 12:49     05 42 18.499343 +18 53 23.48143
 2019-Jan-08 12:50     05 42 18.468014 +18 53 23.44880
 2019-Jan-08 12:51     05 42 18.436690 +18 53 23.41615
 2019-Jan-08 12:52     05 42 18.405373 +18 53 23.38349
 2019-Jan-08 12:53     05 42 18.374061 +18 53 23.35081
 2019-Jan-08 12:54     05 42 18.342754 +18 53 23.31813
 2019-Jan-08 12:55     05 42 18.311454 +18 53 23.28543
 2019-Jan-08 12:56     05 42 18.280159 +18 53 23.25272
 2019-Jan-08 12:57     05 42 18.248871 +18 53 23.21999
 2019-Jan-08 12:58     05 42 18.217588 +18 53 23.18726
 2019-Jan-08 12:59     05 42 18.186310 +18 53 23.15451
 2019-Jan-08 13:00     05 42 18.155039 +18 53 23.12175
 2019-Jan-08 13:01     05 42 18.123773 +18 53 23.08898
 2019-Jan-08 13:02     05 42 18.092514 +18 53 23.05619
 2019-Jan-08 13:03     05 42 18.061260 +18 53 23.02340
 2019-Jan-08 13:04     05 42 18.030012 +18 53 22.99059
 2019-Jan-08 13:05     05 42 17.998770 +18 53 22.95777
 2019-Jan-08 13:06     05 42 17.967534 +18 53 22.92494
 2019-Jan-08 13:07     05 42 17.936303 +18 53 22.89209
 2019-Jan-08 13:08     05 42 17.905079 +18 53 22.85924
 2019-Jan-08 13:09     05 42 17.873861 +18 53 22.82638
 2019-Jan-08 13:10     05 42 17.842648 +18 53 22.79350
 2019-Jan-08 13:11     05 42 17.811442 +18 53 22.76061
 2019-Jan-08 13:12     05 42 17.780241 +18 53 22.72772
 2019-Jan-08 13:13     05 42 17.749047 +18 53 22.69481
 2019-Jan-08 13:14     05 42 17.717858 +18 53 22.66189
 2019-Jan-08 13:15     05 42 17.686676 +18 53 22.62896
 2019-Jan-08 13:16     05 42 17.655499 +18 53 22.59602
 2019-Jan-08 13:17     05 42 17.624329 +18 53 22.56307
 2019-Jan-08 13:18     05 42 17.593164 +18 53 22.53011
 2019-Jan-08 13:19     05 42 17.562006 +18 53 22.49714
 2019-Jan-08 13:20     05 42 17.530854 +18 53 22.46416
 2019-Jan-08 13:21     05 42 17.499708 +18 53 22.43117
 2019-Jan-08 13:22     05 42 17.468567 +18 53 22.39818
 2019-Jan-08 13:23     05 42 17.437433 +18 53 22.36517
 2019-Jan-08 13:24     05 42 17.406305 +18 53 22.33215
 2019-Jan-08 13:25     05 42 17.375184 +18 53 22.29912
 2019-Jan-08 13:26     05 42 17.344068 +18 53 22.26608
 2019-Jan-08 13:27     05 42 17.312958 +18 53 22.23304
 2019-Jan-08 13:28     05 42 17.281855 +18 53 22.19998
 2019-Jan-08 13:29     05 42 17.250758 +18 53 22.16692
 2019-Jan-08 13:30     05 42 17.219666 +18 53 22.13385
 2019-Jan-08 13:31     05 42 17.188581 +18 53 22.10077
 2019-Jan-08 13:32     05 42 17.157503 +18 53 22.06768
 2019-Jan-08 13:33     05 42 17.126430 +18 53 22.03458
 2019-Jan-08 13:34     05 42 17.095364 +18 53 22.00147
 2019-Jan-08 13:35     05 42 17.064304 +18 53 21.96836
 2019-Jan-08 13:36     05 42 17.033250 +18 53 21.93523
 2019-Jan-08 13:37     05 42 17.002202 +18 53 21.90210
 2019-Jan-08 13:38     05 42 16.971160 +18 53 21.86896
 2019-Jan-08 13:39     05 42 16.940125 +18 53 21.83582
 2019-Jan-08 13:40     05 42 16.909096 +18 53 21.80266
 2019-Jan-08 13:41     05 42 16.878073 +18 53 21.76950
 2019-Jan-08 13:42     05 42 16.847057 +18 53 21.73633
 2019-Jan-08 13:43     05 42 16.816047 +18 53 21.70316
 2019-Jan-08 13:44     05 42 16.785043 +18 53 21.66997
 2019-Jan-08 13:45     05 42 16.754045 +18 53 21.63678
 2019-Jan-08 13:46     05 42 16.723054 +18 53 21.60359
 2019-Jan-08 13:47     05 42 16.692069 +18 53 21.57038
 2019-Jan-08 13:48     05 42 16.661090 +18 53 21.53717
 2019-Jan-08 13:49     05 42 16.630118 +18 53 21.50395
 2019-Jan-08 13:50     05 42 16.599152 +18 53 21.47073
 2019-Jan-08 13:51     05 42 16.568192 +18 53 21.43750
 2019-Jan-08 13:52     05 42 16.537239 +18 53 21.40426
 2019-Jan-08 13:53     05 42 16.506292 +18 53 21.37102
 2019-Jan-08 13:54     05 42 16.475351 +18 53 21.33777
 2019-Jan-08 13:55     05 42 16.444417 +18 53 21.30452
 2019-Jan-08 13:56     05 42 16.413489 +18 53 21.27126
 2019-Jan-08 13:57     05 42 16.382568 +18 53 21.23799
 2019-Jan-08 13:58     05 42 16.351653 +18 53 21.20472
 2019-Jan-08 13:59     05 42 16.320744 +18 53 21.17144
 2019-Jan-08 14:00     05 42 16.289842 +18 53 21.13816
 2019-Jan-08 14:01     05 42 16.258946 +18 53 21.10487
 2019-Jan-08 14:02     05 42 16.228056 +18 53 21.07158
 2019-Jan-08 14:03     05 42 16.197173 +18 53 21.03828
 2019-Jan-08 14:04     05 42 16.166296 +18 53 21.00498
 2019-Jan-08 14:05     05 42 16.135426 +18 53 20.97167
 2019-Jan-08 14:06     05 42 16.104562 +18 53 20.93836
 2019-Jan-08 14:07     05 42 16.073705 +18 53 20.90504
 2019-Jan-08 14:08     05 42 16.042854 +18 53 20.87172
 2019-Jan-08 14:09     05 42 16.012010 +18 53 20.83840
 2019-Jan-08 14:10     05 42 15.981172 +18 53 20.80507
 2019-Jan-08 14:11     05 42 15.950340 +18 53 20.77174
 2019-Jan-08 14:12     05 42 15.919515 +18 53 20.73840
 2019-Jan-08 14:13     05 42 15.888697 +18 53 20.70506
 2019-Jan-08 14:14     05 42 15.857885 +18 53 20.67172
 2019-Jan-08 14:15     05 42 15.827079 +18 53 20.63837
 2019-Jan-08 14:16     05 42 15.796280 +18 53 20.60502
 2019-Jan-08 14:17     05 42 15.765487 +18 53 20.57166
 2019-Jan-08 14:18     05 42 15.734701 +18 53 20.53831
 2019-Jan-08 14:19     05 42 15.703921 +18 53 20.50495
 2019-Jan-08 14:20     05 42 15.673148 +18 53 20.47158
 2019-Jan-08 14:21     05 42 15.642382 +18 53 20.43822
 2019-Jan-08 14:22     05 42 15.611621 +18 53 20.40485
